CZ-4B R/B               
1 28059U 03049C   18144.70888546 -.00000010  00000-0  95746-5 0  9992
2 28059  98.5232  41.6800 0049000 285.5401 131.0145 14.52527204773253
CZ-2C R/B               
1 28222U 04012C   18145.43978637  .00000608  00000-0  40706-4 0  9994
2 28222  97.5734 101.6085 0049512  92.3920  20.4634 15.09710042772240
SL-16 R/B               
1 28353U 04021B   18145.28068644  .00000277  00000-0  17017-3 0  9990
2 28353  71.0018  81.0261 0004089  18.1585 341.9683 14.14211744720526
CZ-2C R/B               
1 28480U 04046B   18144.83405525 -.00000002  00000-0  15187-4 0  9995
2 28480  98.1765 223.7833 0140802 296.3971 170.3013 14.25673356702916
ARIANE 5 R/B            
1 28499U 04049H   18145.24960769  .00000032  00000-0  11346-4 0  9995
2 28499  98.0585 234.8514 0092167 189.9306 228.6484 14.79900820724587
CZ-2D R/B               
1 28738U 05024B   18144.63365558  .00000329  00000-0  23131-4 0  9996
2 28738  97.4558 179.0470 0010437 268.7011  91.3023 15.11534393707384
SUZAKU (ASTRO-EII)      
1 28773U 05025A   18145.52595537  .00000749  00000-0  33093-4 0  9991
2 28773  31.3821 235.1149 0004563 187.3231 172.7350 15.16540912709358
ALOS (DAICHI)           
1 28931U 06002A   18145.44612065  .00000100  00000-0  28330-4 0  9999
2 28931  97.8205 160.2133 0001340  45.9544 314.1777 14.62492620657487
H-2A R/B                
1 28932U 06002B   18145.49740696  .00000030  00000-0  93698-5 0  9999
2 28932  98.2316  87.6641 0088000 269.8931 190.5969 14.91714032668833
AKARI (ASTRO-F)         
1 28939U 06005A   18145.54092033  .00002067  00000-0  62115-4 0  9991
2 28939  98.2118  28.4666 0103318  76.9854 284.2895 15.30704997665458
RESURS-DK 1             
1 29228U 06021A   18145.49216269  .00000057  00000-0  11711-4 0  9997
2 29228  69.9351 307.0627 0005498 210.7635 149.3204 15.02321848659505
GENESIS 1               
1 29252U 06029A   18145.54331222  .00000261  00000-0  23176-4 0  9990
2 29252  64.5036 246.8812 0047088 290.1245  69.4814 15.17302231653761
CZ-4B R/B               
1 29507U 06046C   18145.50854101  .00000526  00000-0  46116-4 0  9997
2 29507  97.7782 158.2783 0046276 171.9230 188.2749 15.00270030632364
CZ-2C R/B               
1 31114U 07010B   18144.69732141 -.00000030  00000-0  54655-5 0  9993
2 31114  98.3649  33.8899 0058786 304.5456  55.0181 14.19272243575947
COSMO-SKYMED 1          
1 31598U 07023A   18145.51972908 -.00001636  00000-0 -19909-3 0  9997
2 31598  97.8940 329.3991 0001145  92.1078 268.0310 14.82141969593157
GENESIS 2               
1 31789U 07028A   18144.76628921  .00000304  00000-0  25796-4 0  9994
2 31789  64.5038 288.6361 0014017 326.4546  33.5687 15.16547825600702
COSMOS 2428             
1 31792U 07029A   18145.48950840  .00000253  00000-0  16275-3 0  9991
2 31792  70.9631  54.0933 0007031 145.0806 215.0777 14.12521439562407
SL-16 R/B               
1 31793U 07029B   18144.96350875  .00000080  00000-0  66802-4 0  9996
2 31793  70.9763  31.2476 0002141 275.3376 171.8985 14.14395962563008
KORONAS-FOTON           
1 33504U 09003A   18144.76922137  .00000572  00000-0  28644-4 0  9994
2 33504  82.4438 253.4474 0019589  14.0837 346.0937 15.15167726513192
H-2A R/B                
1 38341U 12025E   18145.23276456  .00000108  00000-0  20075-4 0  9990
2 38341  98.4193 246.0102 0056747 136.9505 223.6168 14.83753691325609
CUSAT 2 & FALCON 9 R/B  
1 39271U 13055G   18144.92249453  .00002103  00000-0  53232-4 0  9997
2 39271  80.9678 354.4400 0615292 268.0625  85.0036 14.41296923241781
ALOS-2                  
1 39766U 14029A   18145.47245465  .00000156  00000-0  27828-4 0  9996
2 39766  97.9208 242.8831 0001567  86.6721 273.4666 14.79473544216219
SL-27 R/B               
1 40354U 14084B   18145.50004412  .00000775  00000-0  20899-4 0  9999
2 40354  74.7369 146.5075 0039114 353.9136   6.1594 15.39032120192508
ASTRO-H (HITOMI)        
1 41337U 16012A   18145.19735223  .00000229  00000-0  11676-4 0  9997
2 41337  31.0052 111.2874 0012475 179.1185 180.9473 14.98467417124264
TIANGONG-2              
1 41765U 16057A   18145.20258106  .00003084  00000-0  39670-4 0  9999
2 41765  42.7847 119.9308 0002248  97.1223 341.4991 15.61332887 96390
SHENZHOU-11 MODULE      
1 41868U 16061G   18144.88831792  .00006611  00000-0  52600-4 0  9996
2 41868  42.7938  93.1683 0002224 275.7761 121.8298 15.71880043 86616
